OBJECT_NAME,OBJECT_ID,EPOCH,MEAN_MOTION,ECCENTRICITY,INCLINATION,RA_OF_ASC_NODE,ARG_OF_PERICENTER,MEAN_ANOMALY,EPHEMERIS_TYPE,CLASSIFICATION_TYPE,NORAD_CAT_ID,ELEMENT_SET_NO,REV_AT_EPOCH,BSTAR,MEAN_MOTION_DOT,MEAN_MOTION_DDOT
ASTRA 3B,2010-021A,2026-06-15T06:19:43.211712,1.00270027,.00041685,1.4651,83.5788,3.2446,295.1467,0,U,36581,999,5884,0,.139E-5,0
COMSATBW-2,2010-021B,2026-06-15T06:16:43.498848,1.00271804,.00025042,0.0409,61.8549,38.2714,270.7881,0,U,36582,999,5893,0,.92E-6,0
BEIDOU-2 G3,2010-024A,2026-06-14T21:44:24.009216,1.00271377,.00077376,4.5093,61.5226,352.1594,255.3203,0,U,36590,999,5874,0,-.134E-5,0
BADR-5,2010-025A,2026-06-15T06:21:20.556000,1.00268838,.00033857,0.0814,106.2247,87.8903,195.2277,0,U,36592,999,5319,0,.157E-5,0
COMS 1,2010-032A,2026-06-14T21:46:51.833568,0.99162575,.00114404,4.7990,75.3807,11.6720,225.4123,0,U,36744,999,5106,0,.23E-6,0
ARABSAT-5A,2010-032B,2026-06-15T06:21:20.556000,1.00273128,.00057407,0.0869,58.8900,44.6350,285.8429,0,U,36745,999,5862,0,.157E-5,0
ECHOSTAR 15,2010-034A,2026-06-15T05:39:04.790304,1.00272280,.00015681,0.0330,61.8427,31.9305,135.7174,0,U,36792,999,5830,0,.3E-7,0
BEIDOU-2 IGSO-1,2010-036A,2026-06-14T22:10:19.148736,1.00272534,.00592579,54.3019,162.9804,225.1385,315.3352,0,U,36828,999,5807,0,-.61E-6,0
NILESAT 201,2010-037A,2026-06-15T06:10:59.048832,1.00271889,.0004407,0.0468,123.9583,350.3721,234.9821,0,U,36830,999,5835,0,-.54E-6,0
RASCOM-QAF 1R,2010-037B,2026-06-15T06:13:51.274272,1.00272301,.00067772,0.0193,66.1373,13.6451,280.1225,0,U,36831,999,5828,0,.22E-6,0
AEHF-1 (USA 214),2010-039A,2026-06-14T21:48:13.661280,1.00273313,.00038138,8.2136,68.0797,7.4601,184.6495,0,U,36868,999,5363,0,.146E-5,0
XM-5,2010-053A,2026-06-15T00:23:38.718240,1.00271028,.00028901,0.0647,273.1886,289.1857,311.6507,0,U,37185,999,5746,0,-.18E-6,0
BSAT-3B,2010-056B,2026-06-15T06:44:18.354336,1.00270198,.00015253,0.0664,243.6048,304.6599,286.2344,0,U,37207,999,5208,0,-.346E-5,0
BEIDOU-2 G4,2010-057A,2026-06-15T07:58:35.504832,1.00270763,.00052582,3.6415,68.9537,196.9053,277.4114,0,U,37210,999,5727,0,-.112E-5,0
SKYTERRA 1,2010-061A,2026-06-15T05:44:04.310592,1.00271796,.00022037,5.1211,50.8594,6.9166,190.4268,0,U,37218,999,5717,0,-.118E-5,0
HYLAS 1,2010-065A,2026-06-14T23:50:11.525280,1.00271448,.00008592,5.6380,73.0459,315.0030,246.5780,0,U,37237,999,686,0,.9E-6,0
INTELSAT 17 (IS-17),2010-065B,2026-06-15T04:57:21.715776,1.00271411,.00025533,0.0100,282.8025,169.4403,311.5861,0,U,37238,999,5322,0,.3E-7,0
BEIDOU-2 IGSO-2,2010-068A,2026-06-14T20:16:39.205344,1.00283457,.00559074,47.5533,271.8616,212.6114,190.6476,0,U,37256,999,5677,0,-.216E-5,0
EUTELSAT KA-SAT 9A,2010-069A,2026-06-15T04:32:50.633088,1.00273434,.00038315,0.0611,10.5786,120.1572,209.9667,0,U,37258,999,4398,0,.66E-6,0
HISPASAT 30W-5,2010-070A,2026-06-15T06:04:29.671680,1.00272227,.00050548,0.0492,122.7462,340.3560,221.5603,0,U,37264,999,5316,0,-.212E-5,0
KOREASAT 6,2010-070B,2026-06-15T07:51:00.950112,1.00270747,.00020167,0.0176,10.6430,83.0442,87.5640,0,U,37265,999,5675,0,-.108E-5,0
BEIDOU-2 IGSO-3,2011-013A,2026-06-14T14:04:06.536928,1.00267759,.00343713,62.4034,40.1764,184.2029,357.3112,0,U,37384,999,5563,0,-.189E-5,0
INTELSAT 28 (IS-28),2011-016A,2026-06-15T06:03:59.719392,1.00270078,.00035832,1.8014,82.6438,5.9993,234.1829,0,U,37392,999,5326,0,-.223E-5,0
YAHSAT 1A,2011-016B,2026-06-15T04:45:19.436832,1.00269052,.00026905,0.0209,6.8239,91.0829,289.4000,0,U,37393,999,4238,0,0,0
SBIRS GEO-1 (USA 230),2011-019A,2026-06-15T06:27:27.470016,1.00272105,.00020665,4.5318,53.1288,24.3810,334.7087,0,U,37481,999,5537,0,.1E-5,0
TELSTAR 14R,2011-021A,2026-06-15T05:55:00.580800,1.00270896,.00021294,0.0173,7.9543,48.3403,232.9839,0,U,37602,999,5581,0,-.276E-5,0
GSAT-8,2011-022A,2026-06-14T23:38:04.711200,1.00272748,.00023585,2.1255,81.8491,203.3556,27.6697,0,U,37605,999,5319,0,.88E-6,0
ST-2,2011-022B,2026-06-15T01:16:38.720352,1.00270942,.00015484,0.0230,11.4606,83.0604,275.9926,0,U,37606,999,5525,0,0,0
ZHONGXING-10,2011-026A,2026-06-14T23:46:41.384928,1.00268529,.00032173,1.0400,84.2326,3.9334,257.2747,0,U,37677,999,5497,0,-.183E-5,0
SES-3,2011-035A,2026-06-15T06:19:25.152384,1.00271160,.0002212,1.3220,83.1041,352.4287,179.8743,0,U,37748,999,5457,0,-.99E-6,0
KAZSAT-2,2011-035B,2026-06-15T01:16:38.720352,1.00271966,.00011305,0.0317,240.2683,280.5240,208.2276,0,U,37749,999,5337,0,-.193E-5,0
BEIDOU-2 IGSO-4,2011-038A,2026-06-14T20:48:31.379040,1.00285242,.01594838,54.5995,165.6936,231.3888,271.5218,0,U,37763,999,5462,0,.46E-6,0
