ASTRA 3B                
1 36581U 10021A   26166.26369458  .00000139  00000+0  00000+0 0  9992
2 36581   1.4651  83.5788 0004168   3.2446 295.1467  1.00270027 58847
COMSATBW-2              
1 36582U 10021B   26166.26161457  .00000092  00000+0  00000+0 0  9990
2 36582   0.0409  61.8549 0002504  38.2714 270.7881  1.00271804 58939
BEIDOU-2 G3             
1 36590U 10024A   26165.90583344 -.00000134  00000+0  00000+0 0  9993
2 36590   4.5093  61.5226 0007737 352.1594 255.3203  1.00271377 58743
BADR-5                  
1 36592U 10025A   26166.26482125  .00000157  00000+0  00000+0 0  9995
2 36592   0.0814 106.2247 0003385  87.8903 195.2277  1.00268838 53193
COMS 1                  
1 36744U 10032A   26165.90754437  .00000023  00000+0  00000+0 0  9992
2 36744   4.7990  75.3807 0011440  11.6720 225.4123  0.99162575 51067
ARABSAT-5A              
1 36745U 10032B   26166.26482125  .00000157  00000+0  00000+0 0  9993
2 36745   0.0869  58.8900 0005740  44.6350 285.8429  1.00273128 58621
ECHOSTAR 15             
1 36792U 10034A   26166.23547211  .00000003  00000+0  00000+0 0  9992
2 36792   0.0330  61.8427 0001568  31.9305 135.7174  1.00272280 58300
BEIDOU-2 IGSO-1         
1 36828U 10036A   26165.92383274 -.00000061  00000+0  00000+0 0  9991
2 36828  54.3019 162.9804 0059257 225.1385 315.3352  1.00272534 58071
NILESAT 201             
1 36830U 10037A   26166.25762788 -.00000054  00000+0  00000+0 0  9995
2 36830   0.0468 123.9583 0004407 350.3721 234.9821  1.00271889 58353
RASCOM-QAF 1R           
1 36831U 10037B   26166.25962123  .00000022  00000+0  00000+0 0  9995
2 36831   0.0193  66.1373 0006777  13.6451 280.1225  1.00272301 58288
AEHF-1 (USA 214)        
1 36868U 10039A   26165.90849145  .00000146  00000+0  00000+0 0  9993
2 36868   8.2136  68.0797 0003813   7.4601 184.6495  1.00273313 53637
XM-5                    
1 37185U 10053A   26166.01642035 -.00000018  00000+0  00000+0 0  9993
2 37185   0.0647 273.1886 0002890 289.1857 311.6507  1.00271028 57463
BSAT-3B                 
1 37207U 10056B   26166.28076799 -.00000346  00000+0  00000+0 0  9992
2 37207   0.0664 243.6048 0001525 304.6599 286.2344  1.00270198 52085
BEIDOU-2 G4             
1 37210U 10057A   26166.33235538 -.00000112  00000+0  00000+0 0  9992
2 37210   3.6415  68.9537 0005258 196.9053 277.4114  1.00270763 57278
SKYTERRA 1              
1 37218U 10061A   26166.23893878 -.00000118  00000+0  00000+0 0  9997
2 37218   5.1211  50.8594 0002203   6.9166 190.4268  1.00271796 57172
HYLAS 1                 
1 37237U 10065A   26165.99318895  .00000090  00000+0  00000+0 0  9993
2 37237   5.6380  73.0459 0000859 315.0030 246.5780  1.00271448  6867
INTELSAT 17 (IS-17)     
1 37238U 10065B   26166.20650134  .00000003  00000+0  00000+0 0  9998
2 37238   0.0100 282.8025 0002553 169.4403 311.5861  1.00271411 53229
BEIDOU-2 IGSO-2         
1 37256U 10068A   26165.84489821 -.00000216  00000+0  00000+0 0  9990
2 37256  47.5533 271.8616 0055907 212.6114 190.6476  1.00283457 56774
EUTELSAT KA-SAT 9A      
1 37258U 10069A   26166.18947492  .00000066  00000+0  00000+0 0  9996
2 37258   0.0611  10.5786 0003831 120.1572 209.9667  1.00273434 43982
HISPASAT 30W-5          
1 37264U 10070A   26166.25312120 -.00000212  00000+0  00000+0 0  9991
2 37264   0.0492 122.7462 0005054 340.3560 221.5603  1.00272227 53165
KOREASAT 6              
1 37265U 10070B   26166.32709433 -.00000108  00000+0  00000+0 0  9991
2 37265   0.0176  10.6430 0002016  83.0442  87.5640  1.00270747 56754
BEIDOU-2 IGSO-3         
1 37384U 11013A   26165.58618677 -.00000189  00000+0  00000+0 0  9996
2 37384  62.4034  40.1764 0034371 184.2029 357.3112  1.00267759 55630
INTELSAT 28 (IS-28)     
1 37392U 11016A   26166.25277453 -.00000223  00000+0  00000+0 0  9995
2 37392   1.8014  82.6438 0003583   5.9993 234.1829  1.00270078 53265
YAHSAT 1A               
1 37393U 11016B   26166.19814163  .00000000  00000+0  00000+0 0  9996
2 37393   0.0209   6.8239 0002690  91.0829 289.4000  1.00269052 42387
SBIRS GEO-1 (USA 230)   
1 37481U 11019A   26166.26906794  .00000100  00000+0  00000+0 0  9998
2 37481   4.5318  53.1288 0002066  24.3810 334.7087  1.00272105 55375
TELSTAR 14R             
1 37602U 11021A   26166.24653450 -.00000276  00000+0  00000+0 0  9997
2 37602   0.0173   7.9543 0002129  48.3403 232.9839  1.00270896 55813
GSAT-8                  
1 37605U 11022A   26165.98477675  .00000088  00000+0  00000+0 0  9994
2 37605   2.1255  81.8491 0002358 203.3556  27.6697  1.00272748 53197
ST-2                    
1 37606U 11022B   26166.05322593  .00000000  00000+0  00000+0 0  9996
2 37606   0.0230  11.4606 0001548  83.0604 275.9926  1.00270942 55258
ZHONGXING-10            
1 37677U 11026A   26165.99075677 -.00000183  00000+0  00000+0 0  9991
2 37677   1.0400  84.2326 0003217   3.9334 257.2747  1.00268529 54979
SES-3                   
1 37748U 11035A   26166.26348556 -.00000099  00000+0  00000+0 0  9996
2 37748   1.3220  83.1041 0002212 352.4287 179.8743  1.00271160 54572
KAZSAT-2                
1 37749U 11035B   26166.05322593 -.00000193  00000+0  00000+0 0  9992
2 37749   0.0317 240.2683 0001130 280.5240 208.2276  1.00271966 53371
BEIDOU-2 IGSO-4         
1 37763U 11038A   26165.86702985  .00000046  00000+0  00000+0 0  9992
2 37763  54.5995 165.6936 0159483 231.3888 271.5218  1.00285242 54621
